{
  "norad_id": 67511,
  "name": "STARLINK-36540",
  "history": [
    {
      "epoch": "2026-03-28T16:28:23.587104Z",
      "apogee_km": 483.4025683207392,
      "perigee_km": 482.53806879860167,
      "latitude_deg": 5.4687005363041574e-05,
      "longitude_deg": 134.2376118144958,
      "height_km": 482.68696537911273,
      "semi_major_axis_km": 6861.107318559671,
      "eccentricity": 6.3e-05,
      "inclination_deg": 43.0064,
      "raan_deg": 207.4391,
      "arg_perigee_deg": 277.9901,
      "mean_anomaly_deg": 82.088,
      "mean_motion_rev_day": 15.27606309
    },
    {
      "epoch": "2026-03-29T23:51:31.230144Z",
      "apogee_km": 485.1814601330134,
      "perigee_km": 480.7903414764978,
      "latitude_deg": 1.3151588876991766e-05,
      "longitude_deg": 14.773467024657762,
      "height_km": 482.1198738546114,
      "semi_major_axis_km": 6861.122900804755,
      "eccentricity": 0.00032,
      "inclination_deg": 42.9945,
      "raan_deg": 200.0458,
      "arg_perigee_deg": 287.0401,
      "mean_anomaly_deg": 73.01,
      "mean_motion_rev_day": 15.27601105
    },
    {
      "epoch": "2026-03-30T13:58:56.768736Z",
      "apogee_km": 483.42770030599877,
      "perigee_km": 482.67886999827715,
      "latitude_deg": 4.165893025257793e-06,
      "longitude_deg": 159.0178050736927,
      "height_km": 482.6092260652087,
      "semi_major_axis_km": 6861.190285152137,
      "eccentricity": 5.457e-05,
      "inclination_deg": 42.9999,
      "raan_deg": 196.7266,
      "arg_perigee_deg": 305.9713,
      "mean_anomaly_deg": 54.1088,
      "mean_motion_rev_day": 15.27578601
    },
    {
      "epoch": "2026-03-30T17:07:15.544704Z",
      "apogee_km": 483.36401316806223,
      "perigee_km": 482.6150525957328,
      "latitude_deg": -3.341266834192402e-05,
      "longitude_deg": 111.07063632765954,
      "height_km": 482.3918363974471,
      "semi_major_axis_km": 6861.126532881897,
      "eccentricity": 5.458e-05,
      "inclination_deg": 43.0005,
      "raan_deg": 195.9866,
      "arg_perigee_deg": 355.3737,
      "mean_anomaly_deg": 4.7109,
      "mean_motion_rev_day": 15.27599892
    },
    {
      "epoch": "2026-03-31T13:31:16.870944Z",
      "apogee_km": 483.5851690611289,
      "perigee_km": 482.3725354454009,
      "latitude_deg": -3.254454013682823e-05,
      "longitude_deg": 159.42809901584624,
      "height_km": 482.90392175695945,
      "semi_major_axis_km": 6861.115852253264,
      "eccentricity": 8.837e-05,
      "inclination_deg": 43.0005,
      "raan_deg": 191.1874,
      "arg_perigee_deg": 255.7934,
      "mean_anomaly_deg": 104.2819,
      "mean_motion_rev_day": 15.27603459
    },
    {
      "epoch": "2026-04-01T06:47:00.490848Z",
      "apogee_km": 483.5573648999598,
      "perigee_km": 482.4883961905707,
      "latitude_deg": -4.99533722080692e-06,
      "longitude_deg": -104.27335018344975,
      "height_km": 483.11001547055804,
      "semi_major_axis_km": 6861.159880545265,
      "eccentricity": 7.79e-05,
      "inclination_deg": 42.9993,
      "raan_deg": 187.1266,
      "arg_perigee_deg": 125.7829,
      "mean_anomaly_deg": 234.3095,
      "mean_motion_rev_day": 15.27588755
    },
    {
      "epoch": "2026-04-02T12:35:58.743744Z",
      "apogee_km": 483.06085830888696,
      "perigee_km": 482.7842203882592,
      "latitude_deg": -9.922412046701442e-06,
      "longitude_deg": 160.24571835591667,
      "height_km": 482.57811632192755,
      "semi_major_axis_km": 6861.059539348573,
      "eccentricity": 2.016e-05,
      "inclination_deg": 43.0003,
      "raan_deg": 180.1129,
      "arg_perigee_deg": 30.0105,
      "mean_anomaly_deg": 330.0758,
      "mean_motion_rev_day": 15.27622266
    },
    {
      "epoch": "2026-04-02T22:00:54.403776Z",
      "apogee_km": 483.29206610463916,
      "perigee_km": 482.44349703325406,
      "latitude_deg": -4.967355140778731e-05,
      "longitude_deg": 16.408480192785827,
      "height_km": 482.38292731077325,
      "semi_major_axis_km": 6861.004781568946,
      "eccentricity": 6.184e-05,
      "inclination_deg": 43.0019,
      "raan_deg": 177.8943,
      "arg_perigee_deg": 307.9617,
      "mean_anomaly_deg": 52.1178,
      "mean_motion_rev_day": 15.27640554
    },
    {
      "epoch": "2026-04-03T15:16:38.600832Z",
      "apogee_km": 484.6224404782115,
      "perigee_km": 481.64190514954134,
      "latitude_deg": -2.197075417417119e-05,
      "longitude_deg": 112.70791881983135,
      "height_km": 481.86816849019186,
      "semi_major_axis_km": 6861.269172813876,
      "eccentricity": 0.0002172,
      "inclination_deg": 43.0012,
      "raan_deg": 173.8368,
      "arg_perigee_deg": 314.3157,
      "mean_anomaly_deg": 45.7516,
      "mean_motion_rev_day": 15.27552256
    },
    {
      "epoch": "2026-04-04T11:40:41.175552Z",
      "apogee_km": 483.4834563021641,
      "perigee_km": 482.48927952615395,
      "latitude_deg": -5.2249340777564256e-05,
      "longitude_deg": 161.05423043745358,
      "height_km": 482.89798482985765,
      "semi_major_axis_km": 6861.123367914159,
      "eccentricity": 7.245e-05,
      "inclination_deg": 43.0006,
      "raan_deg": 169.0317,
      "arg_perigee_deg": 254.1842,
      "mean_anomaly_deg": 105.8929,
      "mean_motion_rev_day": 15.27600949
    }
  ]
}